{
  "previous_tles": {
    "48274": {
      "line1": "1 48274U 21035A   26189.67677280  .00000230  00000+0  72520-5 0  9990",
      "line2": "2 48274  41.4682 191.3403 0002809 278.7724  81.2796 15.58020355296520"
    }