{"fetched_at":"2026-07-09T07:59:51.791Z","source":"https://celestrak.org/NORAD/elements/gp.php?GROUP=stations&FORMAT=JSON","constellation":"tiangong","records":[{"OBJECT_NAME":"CSS (TIANHE)","OBJECT_ID":"2021-035A","EPOCH":"2026-07-08T16:14:33.169920","CLASSIFICATION_TYPE":"U","MEAN_MOTION":15.58020355,"ECCENTRICITY":0.00028092,"INCLINATION":41.4682,"RA_OF_ASC_NODE":191.3403,"ARG_OF_PERICENTER":278.7724,"MEAN_ANOMALY":81.2796,"EPHEMERIS_TYPE":0,"NORAD_CAT_ID":48274,"ELEMENT_SET_NO":999,"REV_AT_EPOCH":29652,"BSTAR":0.000007252043,"MEAN_MOTION_DOT":0.0000023,"MEAN_MOTION_DDOT":0}]}
